ONEWEB-0583             
1 54650U 22166J   22347.91667824  .00052984  00000+0  52273-2 0  9996
2 54650  86.5169 156.1475 0009727 216.0599  12.4344 14.91706597  1304
ONEWEB-0584             
1 54651U 22166K   22347.91667824  .00053256  00000+0  52632-2 0  9999
2 54651  86.5163 156.1458 0009394 216.5688  10.6910 14.91638677  1306
ONEWEB-0585             
1 54652U 22166L   22347.91667824  .00053077  00000+0  52842-2 0  9994
2 54652  86.5173 156.1491 0008140 215.6094   6.6359 14.91353422  1308
ONEWEB-0586             
1 54653U 22166M   22347.91667824  .00053175  00000+0  53631-2 0  9991
2 54653  86.5189 156.1521 0006316 226.8892 346.3087 14.90842312  1305
ONEWEB-0587             
1 54654U 22166N   22347.91667824  .00053354  00000+0  52916-2 0  9996
2 54654  86.5176 156.1509 0008840 215.6132   9.2859 14.91500274  1306
ONEWEB-0589             
1 54655U 22166P   22347.91667824  .00052484  00000+0  51065-2 0  9994
2 54655  86.5162 156.1468 0011501 226.4901  11.6615 14.92250441  1304
ONEWEB-0590             
1 54656U 22166Q   22347.91667824  .00052739  00000+0  51418-2 0  9990
2 54656  86.5155 156.1470 0011273 225.1653  11.5663 14.92169094  1301
ONEWEB-0591             
1 54657U 22166R   22347.91667824  .00052556  00000+0  51273-2 0  9997
2 54657  86.5186 156.1455 0011204 224.6285  11.6337 14.92144889  1302
