<?xml version="1.0" encoding="UTF-8"?>
<ndm xmlns:xsi="http://www.w3.org/2001/XMLSchema-instance" xsi:noNamespaceSchemaLocation="https://sanaregistry.org/r/ndmxml_unqualified/ndmxml-2.0.0-master-2.0.xsd">
<omm id="CCSDS_OMM_VERS" version="2.0">
<header><CREATION_DATE/><ORIGINATOR/></header><body><segment><metadata><OBJECT_NAME>ONEWEB-0583</OBJECT_NAME><OBJECT_ID>2022-166J</OBJECT_ID><CENTER_NAME>EARTH</CENTER_NAME><REF_FRAME>TEME</REF_FRAME><TIME_SYSTEM>UTC</TIME_SYSTEM><MEAN_ELEMENT_THEORY>SGP4</MEAN_ELEMENT_THEORY></metadata><data><meanElements><EPOCH>2022-12-13T22:00:00.999936</EPOCH><MEAN_MOTION>14.91706597</MEAN_MOTION><ECCENTRICITY>.0009727</ECCENTRICITY><INCLINATION>86.5169</INCLINATION><RA_OF_ASC_NODE>156.1475</RA_OF_ASC_NODE><ARG_OF_PERICENTER>216.0599</ARG_OF_PERICENTER><MEAN_ANOMALY>12.4344</MEAN_ANOMALY></meanElements><tleParameters><EPHEMERIS_TYPE>0</EPHEMERIS_TYPE><CLASSIFICATION_TYPE>U</CLASSIFICATION_TYPE><NORAD_CAT_ID>54650</NORAD_CAT_ID><ELEMENT_SET_NO>999</ELEMENT_SET_NO><REV_AT_EPOCH>130</REV_AT_EPOCH><BSTAR>.52273E-2</BSTAR><MEAN_MOTION_DOT>.52984E-3</MEAN_MOTION_DOT><MEAN_MOTION_DDOT>0</MEAN_MOTION_DDOT></tleParameters></data></segment></body></omm>
<omm id="CCSDS_OMM_VERS" version="2.0">
<header><CREATION_DATE/><ORIGINATOR/></header><body><segment><metadata><OBJECT_NAME>ONEWEB-0584</OBJECT_NAME><OBJECT_ID>2022-166K</OBJECT_ID><CENTER_NAME>EARTH</CENTER_NAME><REF_FRAME>TEME</REF_FRAME><TIME_SYSTEM>UTC</TIME_SYSTEM><MEAN_ELEMENT_THEORY>SGP4</MEAN_ELEMENT_THEORY></metadata><data><meanElements><EPOCH>2022-12-13T22:00:00.999936</EPOCH><MEAN_MOTION>14.91638677</MEAN_MOTION><ECCENTRICITY>.0009394</ECCENTRICITY><INCLINATION>86.5163</INCLINATION><RA_OF_ASC_NODE>156.1458</RA_OF_ASC_NODE><ARG_OF_PERICENTER>216.5688</ARG_OF_PERICENTER><MEAN_ANOMALY>10.6910</MEAN_ANOMALY></meanElements><tleParameters><EPHEMERIS_TYPE>0</EPHEMERIS_TYPE><CLASSIFICATION_TYPE>U</CLASSIFICATION_TYPE><NORAD_CAT_ID>54651</NORAD_CAT_ID><ELEMENT_SET_NO>999</ELEMENT_SET_NO><REV_AT_EPOCH>130</REV_AT_EPOCH><BSTAR>.52632E-2</BSTAR><MEAN_MOTION_DOT>.53256E-3</MEAN_MOTION_DOT><MEAN_MOTION_DDOT>0</MEAN_MOTION_DDOT></tleParameters></data></segment></body></omm>
<omm id="CCSDS_OMM_VERS" version="2.0">
<header><CREATION_DATE/><ORIGINATOR/></header><body><segment><metadata><OBJECT_NAME>ONEWEB-0585</OBJECT_NAME><OBJECT_ID>2022-166L</OBJECT_ID><CENTER_NAME>EARTH</CENTER_NAME><REF_FRAME>TEME</REF_FRAME><TIME_SYSTEM>UTC</TIME_SYSTEM><MEAN_ELEMENT_THEORY>SGP4</MEAN_ELEMENT_THEORY></metadata><data><meanElements><EPOCH>2022-12-13T22:00:00.999936</EPOCH><MEAN_MOTION>14.91353422</MEAN_MOTION><ECCENTRICITY>.000814</ECCENTRICITY><INCLINATION>86.5173</INCLINATION><RA_OF_ASC_NODE>156.1491</RA_OF_ASC_NODE><ARG_OF_PERICENTER>215.6094</ARG_OF_PERICENTER><MEAN_ANOMALY>6.6359</MEAN_ANOMALY></meanElements><tleParameters><EPHEMERIS_TYPE>0</EPHEMERIS_TYPE><CLASSIFICATION_TYPE>U</CLASSIFICATION_TYPE><NORAD_CAT_ID>54652</NORAD_CAT_ID><ELEMENT_SET_NO>999</ELEMENT_SET_NO><REV_AT_EPOCH>130</REV_AT_EPOCH><BSTAR>.52842E-2</BSTAR><MEAN_MOTION_DOT>.53077E-3</MEAN_MOTION_DOT><MEAN_MOTION_DDOT>0</MEAN_MOTION_DDOT></tleParameters></data></segment></body></omm>
<omm id="CCSDS_OMM_VERS" version="2.0">
<header><CREATION_DATE/><ORIGINATOR/></header><body><segment><metadata><OBJECT_NAME>ONEWEB-0586</OBJECT_NAME><OBJECT_ID>2022-166M</OBJECT_ID><CENTER_NAME>EARTH</CENTER_NAME><REF_FRAME>TEME</REF_FRAME><TIME_SYSTEM>UTC</TIME_SYSTEM><MEAN_ELEMENT_THEORY>SGP4</MEAN_ELEMENT_THEORY></metadata><data><meanElements><EPOCH>2022-12-13T22:00:00.999936</EPOCH><MEAN_MOTION>14.90842312</MEAN_MOTION><ECCENTRICITY>.0006316</ECCENTRICITY><INCLINATION>86.5189</INCLINATION><RA_OF_ASC_NODE>156.1521</RA_OF_ASC_NODE><ARG_OF_PERICENTER>226.8892</ARG_OF_PERICENTER><MEAN_ANOMALY>346.3087</MEAN_ANOMALY></meanElements><tleParameters><EPHEMERIS_TYPE>0</EPHEMERIS_TYPE><CLASSIFICATION_TYPE>U</CLASSIFICATION_TYPE><NORAD_CAT_ID>54653</NORAD_CAT_ID><ELEMENT_SET_NO>999</ELEMENT_SET_NO><REV_AT_EPOCH>130</REV_AT_EPOCH><BSTAR>.53631E-2</BSTAR><MEAN_MOTION_DOT>.53175E-3</MEAN_MOTION_DOT><MEAN_MOTION_DDOT>0</MEAN_MOTION_DDOT></tleParameters></data></segment></body></omm>
<omm id="CCSDS_OMM_VERS" version="2.0">
<header><CREATION_DATE/><ORIGINATOR/></header><body><segment><metadata><OBJECT_NAME>ONEWEB-0587</OBJECT_NAME><OBJECT_ID>2022-166N</OBJECT_ID><CENTER_NAME>EARTH</CENTER_NAME><REF_FRAME>TEME</REF_FRAME><TIME_SYSTEM>UTC</TIME_SYSTEM><MEAN_ELEMENT_THEORY>SGP4</MEAN_ELEMENT_THEORY></metadata><data><meanElements><EPOCH>2022-12-13T22:00:00.999936</EPOCH><MEAN_MOTION>14.91500274</MEAN_MOTION><ECCENTRICITY>.000884</ECCENTRICITY><INCLINATION>86.5176</INCLINATION><RA_OF_ASC_NODE>156.1509</RA_OF_ASC_NODE><ARG_OF_PERICENTER>215.6132</ARG_OF_PERICENTER><MEAN_ANOMALY>9.2859</MEAN_ANOMALY></meanElements><tleParameters><EPHEMERIS_TYPE>0</EPHEMERIS_TYPE><CLASSIFICATION_TYPE>U</CLASSIFICATION_TYPE><NORAD_CAT_ID>54654</NORAD_CAT_ID><ELEMENT_SET_NO>999</ELEMENT_SET_NO><REV_AT_EPOCH>130</REV_AT_EPOCH><BSTAR>.52916E-2</BSTAR><MEAN_MOTION_DOT>.53354E-3</MEAN_MOTION_DOT><MEAN_MOTION_DDOT>0</MEAN_MOTION_DDOT></tleParameters></data></segment></body></omm>
<omm id="CCSDS_OMM_VERS" version="2.0">
<header><CREATION_DATE/><ORIGINATOR/></header><body><segment><metadata><OBJECT_NAME>ONEWEB-0589</OBJECT_NAME><OBJECT_ID>2022-166P</OBJECT_ID><CENTER_NAME>EARTH</CENTER_NAME><REF_FRAME>TEME</REF_FRAME><TIME_SYSTEM>UTC</TIME_SYSTEM><MEAN_ELEMENT_THEORY>SGP4</MEAN_ELEMENT_THEORY></metadata><data><meanElements><EPOCH>2022-12-13T22:00:00.999936</EPOCH><MEAN_MOTION>14.92250441</MEAN_MOTION><ECCENTRICITY>.0011501</ECCENTRICITY><INCLINATION>86.5162</INCLINATION><RA_OF_ASC_NODE>156.1468</RA_OF_ASC_NODE><ARG_OF_PERICENTER>226.4901</ARG_OF_PERICENTER><MEAN_ANOMALY>11.6615</MEAN_ANOMALY></meanElements><tleParameters><EPHEMERIS_TYPE>0</EPHEMERIS_TYPE><CLASSIFICATION_TYPE>U</CLASSIFICATION_TYPE><NORAD_CAT_ID>54655</NORAD_CAT_ID><ELEMENT_SET_NO>999</ELEMENT_SET_NO><REV_AT_EPOCH>130</REV_AT_EPOCH><BSTAR>.51065E-2</BSTAR><MEAN_MOTION_DOT>.52484E-3</MEAN_MOTION_DOT><MEAN_MOTION_DDOT>0</MEAN_MOTION_DDOT></tleParameters></data></segment></body></omm>
<omm id="CCSDS_OMM_VERS" version="2.0">
<header><CREATION_DATE/><ORIGINATOR/></header><body><segment><metadata><OBJECT_NAME>ONEWEB-0590</OBJECT_NAME><OBJECT_ID>2022-166Q</OBJECT_ID><CENTER_NAME>EARTH</CENTER_NAME><REF_FRAME>TEME</REF_FRAME><TIME_SYSTEM>UTC</TIME_SYSTEM><MEAN_ELEMENT_THEORY>SGP4</MEAN_ELEMENT_THEORY></metadata><data><meanElements><EPOCH>2022-12-13T22:00:00.999936</EPOCH><MEAN_MOTION>14.92169094</MEAN_MOTION><ECCENTRICITY>.0011273</ECCENTRICITY><INCLINATION>86.5155</INCLINATION><RA_OF_ASC_NODE>156.1470</RA_OF_ASC_NODE><ARG_OF_PERICENTER>225.1653</ARG_OF_PERICENTER><MEAN_ANOMALY>11.5663</MEAN_ANOMALY></meanElements><tleParameters><EPHEMERIS_TYPE>0</EPHEMERIS_TYPE><CLASSIFICATION_TYPE>U</CLASSIFICATION_TYPE><NORAD_CAT_ID>54656</NORAD_CAT_ID><ELEMENT_SET_NO>999</ELEMENT_SET_NO><REV_AT_EPOCH>130</REV_AT_EPOCH><BSTAR>.51418E-2</BSTAR><MEAN_MOTION_DOT>.52739E-3</MEAN_MOTION_DOT><MEAN_MOTION_DDOT>0</MEAN_MOTION_DDOT></tleParameters></data></segment></body></omm>
<omm id="CCSDS_OMM_VERS" version="2.0">
<header><CREATION_DATE/><ORIGINATOR/></header><body><segment><metadata><OBJECT_NAME>ONEWEB-0591</OBJECT_NAME><OBJECT_ID>2022-166R</OBJECT_ID><CENTER_NAME>EARTH</CENTER_NAME><REF_FRAME>TEME</REF_FRAME><TIME_SYSTEM>UTC</TIME_SYSTEM><MEAN_ELEMENT_THEORY>SGP4</MEAN_ELEMENT_THEORY></metadata><data><meanElements><EPOCH>2022-12-13T22:00:00.999936</EPOCH><MEAN_MOTION>14.92144889</MEAN_MOTION><ECCENTRICITY>.0011204</ECCENTRICITY><INCLINATION>86.5186</INCLINATION><RA_OF_ASC_NODE>156.1455</RA_OF_ASC_NODE><ARG_OF_PERICENTER>224.6285</ARG_OF_PERICENTER><MEAN_ANOMALY>11.6337</MEAN_ANOMALY></meanElements><tleParameters><EPHEMERIS_TYPE>0</EPHEMERIS_TYPE><CLASSIFICATION_TYPE>U</CLASSIFICATION_TYPE><NORAD_CAT_ID>54657</NORAD_CAT_ID><ELEMENT_SET_NO>999</ELEMENT_SET_NO><REV_AT_EPOCH>130</REV_AT_EPOCH><BSTAR>.51273E-2</BSTAR><MEAN_MOTION_DOT>.52556E-3</MEAN_MOTION_DOT><MEAN_MOTION_DDOT>0</MEAN_MOTION_DDOT></tleParameters></data></segment></body></omm>

</ndm>